CCSDS_OMM_VERS = 2.0
CREATION_DATE  = 
ORIGINATOR     = 

OBJECT_NAME    = SKYSAT-C19
OBJECT_ID      = 2020-057BS
CENTER_NAME    = EARTH
REF_FRAME      = TEME
TIME_SYSTEM    = UTC
MEAN_ELEMENT_THEORY = SGP/SGP4

EPOCH          = 2020-09-08T17:48:51.153408
MEAN_MOTION    = 15.75831309
ECCENTRICITY   = .0016575
INCLINATION    = 53.0004
RA_OF_ASC_NODE = 334.5505
ARG_OF_PERICENTER = 68.9940
MEAN_ANOMALY   = 291.2850

EPHEMERIS_TYPE = 0
CLASSIFICATION_TYPE = U
NORAD_CAT_ID   = 46235
ELEMENT_SET_NO = 999
REV_AT_EPOCH   = 299
BSTAR          = .59671E-4
MEAN_MOTION_DOT = 8.806E-5
MEAN_MOTION_DDOT = 0

CCSDS_OMM_VERS = 2.0
CREATION_DATE  = 
ORIGINATOR     = 

OBJECT_NAME    = FALCON 9 DEB
OBJECT_ID      = 2020-057BT
CENTER_NAME    = EARTH
REF_FRAME      = TEME
TIME_SYSTEM    = UTC
MEAN_ELEMENT_THEORY = SGP/SGP4

EPOCH          = 2020-09-09T04:43:52.631616
MEAN_MOTION    = 16.10072531
ECCENTRICITY   = .0070220
INCLINATION    = 52.9978
RA_OF_ASC_NODE = 330.1560
ARG_OF_PERICENTER = 122.0280
MEAN_ANOMALY   = 238.7600

EPHEMERIS_TYPE = 0
CLASSIFICATION_TYPE = U
NORAD_CAT_ID   = 46236
ELEMENT_SET_NO = 999
REV_AT_EPOCH   = 347
BSTAR          = .32101E-3
MEAN_MOTION_DOT = 4.60922E-3
MEAN_MOTION_DDOT = .11590E-4

CCSDS_OMM_VERS = 2.0
CREATION_DATE  = 
ORIGINATOR     = 

OBJECT_NAME    = 2020-059A
OBJECT_ID      = 2020-059A
CENTER_NAME    = EARTH
REF_FRAME      = TEME
TIME_SYSTEM    = UTC
MEAN_ELEMENT_THEORY = SGP/SGP4

EPOCH          = 2020-09-09T05:41:59.828928
MEAN_MOTION    = 14.86393200
ECCENTRICITY   = .0004501
INCLINATION    = 97.8803
RA_OF_ASC_NODE = 76.9884
ARG_OF_PERICENTER = 138.2461
MEAN_ANOMALY   = 222.0642

EPHEMERIS_TYPE = 0
CLASSIFICATION_TYPE = U
NORAD_CAT_ID   = 46265
ELEMENT_SET_NO = 999
REV_AT_EPOCH   = 137
BSTAR          = .54017E-2
MEAN_MOTION_DOT = 4.7927E-4
MEAN_MOTION_DDOT = 0

CCSDS_OMM_VERS = 2.0
CREATION_DATE  = 
ORIGINATOR     = 

OBJECT_NAME    = 2020-059B
OBJECT_ID      = 2020-059B
CENTER_NAME    = EARTH
REF_FRAME      = TEME
TIME_SYSTEM    = UTC
MEAN_ELEMENT_THEORY = SGP/SGP4

EPOCH          = 2020-09-08T18:11:29.619744
MEAN_MOTION    = 14.87884079
ECCENTRICITY   = .0006436
INCLINATION    = 97.8846
RA_OF_ASC_NODE = 76.5393
ARG_OF_PERICENTER = 108.4330
MEAN_ANOMALY   = 251.7591

EPHEMERIS_TYPE = 0
CLASSIFICATION_TYPE = U
NORAD_CAT_ID   = 46266
ELEMENT_SET_NO = 999
REV_AT_EPOCH   = 130
BSTAR          = .38237E-4
MEAN_MOTION_DOT = 2.95E-6
MEAN_MOTION_DDOT = 0

CCSDS_OMM_VERS = 2.0
CREATION_DATE  = 
ORIGINATOR     = 

OBJECT_NAME    = 2020-059C
OBJECT_ID      = 2020-059C
CENTER_NAME    = EARTH
REF_FRAME      = TEME
TIME_SYSTEM    = UTC
MEAN_ELEMENT_THEORY = SGP/SGP4

EPOCH          = 2020-09-08T18:09:07.613568
MEAN_MOTION    = 14.88164974
ECCENTRICITY   = .0007476
INCLINATION    = 97.8720
RA_OF_ASC_NODE = 76.5287
ARG_OF_PERICENTER = 115.1176
MEAN_ANOMALY   = 245.0826

EPHEMERIS_TYPE = 0
CLASSIFICATION_TYPE = U
NORAD_CAT_ID   = 46267
ELEMENT_SET_NO = 999
REV_AT_EPOCH   = 129
BSTAR          = .41829E-4
MEAN_MOTION_DOT = 3.3E-6
MEAN_MOTION_DDOT = 0

CCSDS_OMM_VERS = 2.0
CREATION_DATE  = 
ORIGINATOR     = 

OBJECT_NAME    = CAPELLA-2
OBJECT_ID      = 2020-060B
CENTER_NAME    = EARTH
REF_FRAME      = TEME
TIME_SYSTEM    = UTC
MEAN_ELEMENT_THEORY = SGP/SGP4

EPOCH          = 2020-09-08T19:45:57.334464
MEAN_MOTION    = 15.09254134
ECCENTRICITY   = .0011131
INCLINATION    = 45.1030
RA_OF_ASC_NODE = 285.0636
ARG_OF_PERICENTER = 317.5918
MEAN_ANOMALY   = 42.4095

EPHEMERIS_TYPE = 0
CLASSIFICATION_TYPE = U
NORAD_CAT_ID   = 46269
ELEMENT_SET_NO = 999
REV_AT_EPOCH   = 131
BSTAR          = .23873E-4
MEAN_MOTION_DOT = 1.35E-6
MEAN_MOTION_DDOT = 0

CCSDS_OMM_VERS = 2.0
CREATION_DATE  = 
ORIGINATOR     = 

OBJECT_NAME    = NUSAT-6 (HYPATIA)
OBJECT_ID      = 2020-061A
CENTER_NAME    = EARTH
REF_FRAME      = TEME
TIME_SYSTEM    = UTC
MEAN_ELEMENT_THEORY = SGP/SGP4

EPOCH          = 2020-09-08T19:46:57.503424
MEAN_MOTION    = 15.15060911
ECCENTRICITY   = .0006079
INCLINATION    = 97.4681
RA_OF_ASC_NODE = 325.8157
ARG_OF_PERICENTER = 198.5434
MEAN_ANOMALY   = 161.5578

EPHEMERIS_TYPE = 0
CLASSIFICATION_TYPE = U
NORAD_CAT_ID   = 46272
ELEMENT_SET_NO = 999
REV_AT_EPOCH   = 86
BSTAR          = .22708E-4
MEAN_MOTION_DOT = 3.59E-6
MEAN_MOTION_DDOT = 0

CCSDS_OMM_VERS = 2.0
CREATION_DATE  = 
ORIGINATOR     = 

OBJECT_NAME    = 2020-061B
OBJECT_ID      = 2020-061B
CENTER_NAME    = EARTH
REF_FRAME      = TEME
TIME_SYSTEM    = UTC
MEAN_ELEMENT_THEORY = SGP/SGP4

EPOCH          = 2020-09-09T03:41:55.852224
MEAN_MOTION    = 15.15158044
ECCENTRICITY   = .0005660
INCLINATION    = 97.4681
RA_OF_ASC_NODE = 326.1406
ARG_OF_PERICENTER = 197.7023
MEAN_ANOMALY   = 162.4013

EPHEMERIS_TYPE = 0
CLASSIFICATION_TYPE = U
NORAD_CAT_ID   = 46273
ELEMENT_SET_NO = 999
REV_AT_EPOCH   = 91
BSTAR          = .16477E-4
MEAN_MOTION_DOT = 2.44E-6
MEAN_MOTION_DDOT = 0

CCSDS_OMM_VERS = 2.0
CREATION_DATE  = 
ORIGINATOR     = 

OBJECT_NAME    = 2020-061C
OBJECT_ID      = 2020-061C
CENTER_NAME    = EARTH
REF_FRAME      = TEME
TIME_SYSTEM    = UTC
MEAN_ELEMENT_THEORY = SGP/SGP4

EPOCH          = 2020-09-09T03:41:31.829568
MEAN_MOTION    = 15.15227909
ECCENTRICITY   = .0005305
INCLINATION    = 97.4682
RA_OF_ASC_NODE = 326.1411
ARG_OF_PERICENTER = 197.5540
MEAN_ANOMALY   = 162.5510

EPHEMERIS_TYPE = 0
CLASSIFICATION_TYPE = U
NORAD_CAT_ID   = 46274
ELEMENT_SET_NO = 999
REV_AT_EPOCH   = 91
BSTAR          = .15525E-4
MEAN_MOTION_DOT = 2.26E-6
MEAN_MOTION_DDOT = 0

CCSDS_OMM_VERS = 2.0
CREATION_DATE  = 
ORIGINATOR     = 

OBJECT_NAME    = 2020-061D
OBJECT_ID      = 2020-061D
CENTER_NAME    = EARTH
REF_FRAME      = TEME
TIME_SYSTEM    = UTC
MEAN_ELEMENT_THEORY = SGP/SGP4

EPOCH          = 2020-09-09T03:37:21.586656
MEAN_MOTION    = 15.15957850
ECCENTRICITY   = .0000758
INCLINATION    = 97.4642
RA_OF_ASC_NODE = 326.1419
ARG_OF_PERICENTER = 135.4381
MEAN_ANOMALY   = 224.6912

EPHEMERIS_TYPE = 0
CLASSIFICATION_TYPE = U
NORAD_CAT_ID   = 46275
ELEMENT_SET_NO = 999
REV_AT_EPOCH   = 91
BSTAR          = .12280E-4
MEAN_MOTION_DOT = 1.7E-6
MEAN_MOTION_DDOT = 0

